NORAD_CAT_ID,OBJECT_NAME,OBJECT_TYPE,EPOCH,MEAN_MOTION,ECCENTRICITY,INCLINATION,RA_OF_ASC_NODE,ARG_OF_PERICENTER,MEAN_ANOMALY,BSTAR,MEAN_MOTION_DOT,MEAN_MOTION_DDOT,TLE_LINE0,TLE_LINE1,TLE_LINE2,SEMIMAJOR_AXIS,PERIOD,APOGEE,PERIGEE,DECAYED
55943.0,STARLINK-5932,PAYLOAD,2023-10-19 19:26:10,14.98332539,0.0002517,70.0006,322.6678,271.6203,88.4667,-1.9757e-05,-3.29e-06,0.0,0 STARLINK-5932,1 55943U 23037AF  23292.80984703 -.00000329  00000-0 -19757-4 0  9997,2 55943  70.0006 322.6678 0002517 271.6203  88.4667 14.98332539 33722,6950.185,96.107,573.799,570.301,0.0
55943.0,STARLINK-5932,PAYLOAD,2023-10-20 11:27:31,14.98324027,0.0002601,69.9999,320.985,266.604,93.4821,-5.4779e-05,-7.46e-06,0.0,0 STARLINK-5932,1 55943U 23037AF  23293.47745286 -.00000746  00000-0 -54779-4 0  9998,2 55943  69.9999 320.9850 0002601 266.6040  93.4821 14.98324027 33822,6950.211,96.107,573.884,570.269,0.0
55943.0,STARLINK-5932,PAYLOAD,2023-10-21 11:29:32,14.98326895,0.0002738,69.9997,318.4597,265.3195,94.7652,-4.3741e-05,-6.15e-06,0.0,0 STARLINK-5932,1 55943U 23037AF  23294.47885217 -.00000615  00000-0 -43741-4 0  9990,2 55943  69.9997 318.4597 0002738 265.3195  94.7652 14.98326895 33975,6950.202,96.107,573.97,570.165,0.0
55943.0,STARLINK-5932,PAYLOAD,2023-10-22 11:31:33,14.98329102,0.0002516,69.9998,315.9352,260.3906,99.6968,6.7025e-05,7.07e-06,0.0,0 STARLINK-5932,1 55943U 23037AF  23295.48024749  .00000707  00000-0  67025-4 0  9998,2 55943  69.9998 315.9352 0002516 260.3906  99.6968 14.98329102 34122,6950.196,96.107,573.809,570.312,0.0
55943.0,STARLINK-5932,PAYLOAD,2023-10-23 11:33:34,14.98325427,0.0002589,69.9999,313.4098,267.2129,92.8733,-7.9172e-06,-1.87e-06,0.0,0 STARLINK-5932,1 55943U 23037AF  23296.48165308 -.00000187  00000-0 -79172-5 0  9997,2 55943  69.9999 313.4098 0002589 267.2129  92.8733 14.98325427 34273,6950.207,96.107,573.871,570.273,0.0
55943.0,STARLINK-5932,PAYLOAD,2023-10-23 19:34:13,14.98398737,0.0003239,69.9998,312.5675,260.9632,99.116,-0.0012061,-0.0001448,0.0,0 STARLINK-5932,1 55943U 23037AF  23296.81542987 -.00014480  00000-0 -12061-2 0  9998,2 55943  69.9998 312.5675 0003239 260.9632  99.1160 14.98398737 34329,6949.98,96.103,574.096,569.594,0.0
55943.0,STARLINK-5932,PAYLOAD,2023-10-24 05:11:03,14.98321606,0.0002185,69.9987,311.557,277.922,82.1691,0.00015374,1.741e-05,0.0,0 STARLINK-5932,1 55943U 23037AF  23297.21601088  .00001741  00000-0  15374-3 0  9996,2 55943  69.9987 311.5570 0002185 277.9220  82.1691 14.98321606 34388,6950.219,96.108,573.602,570.565,0.0
55943.0,STARLINK-5932,PAYLOAD,2023-10-24 11:35:34,14.98342315,0.0002275,69.9988,310.8839,276.5697,83.5203,-0.00012106,-1.537e-05,0.0,0 STARLINK-5932,1 55943U 23037AF  23297.48304391 -.00001537  00000-0 -12106-3 0  9997,2 55943  69.9988 310.8839 0002275 276.5697  83.5203 14.98342315 34421,6950.155,96.106,573.601,570.439,0.0
55943.0,STARLINK-5932,PAYLOAD,2023-10-25 10:01:28,14.98330558,0.0002865,69.9988,308.5276,270.5805,89.5025,2.6111e-05,2.19e-06,0.0,0 STARLINK-5932,1 55943U 23037AF  23298.41768580  .00000219  00000-0  26111-4 0  9991,2 55943  69.9988 308.5276 0002865 270.5805  89.5025 14.98330558 34569,6950.191,96.107,574.047,570.065,0.0
55943.0,STARLINK-5932,PAYLOAD,2023-10-26 10:03:29,14.98329711,0.0002848,69.9989,306.0025,268.4246,91.6587,-2.9146e-05,-4.41e-06,0.0,0 STARLINK-5932,1 55943U 23037AF  23299.41908703 -.00000441  00000-0 -29146-4 0  9995,2 55943  69.9989 306.0025 0002848 268.4246  91.6587 14.98329711 34714,6950.194,96.107,574.038,570.079,0.0
55943.0,STARLINK-5932,PAYLOAD,2023-10-27 10:05:29,14.9833128,0.0002904,69.9988,303.477,268.1559,91.9268,1.6445e-05,1.03e-06,0.0,0 STARLINK-5932,1 55943U 23037AF  23300.42048436  .00000103  00000-0  16445-4 0  9998,2 55943  69.9988 303.4770 0002904 268.1559  91.9268 14.98331280 34867,6950.189,96.107,574.072,570.036,0.0
55943.0,STARLINK-5932,PAYLOAD,2023-10-27 18:06:10,14.98329227,0.0002952,69.9988,302.6349,269.9641,90.1179,-5.2553e-06,-1.56e-06,0.0,0 STARLINK-5932,1 55943U 23037AF  23300.75428614 -.00000156  00000-0 -52553-5 0  9995,2 55943  69.9988 302.6349 0002952 269.9641  90.1179 14.98329227 34572,6950.195,96.107,574.112,570.009,0.0
55943.0,STARLINK-5932,PAYLOAD,2023-10-28 10:07:30,14.98330101,0.0003045,69.9985,300.9522,270.0346,90.0464,1.6071e-05,9.9e-07,0.0,0 STARLINK-5932,1 55943U 23037AF  23301.42188537  .00000099  00000-0  16071-4 0  9995,2 55943  69.9985 300.9522 0003045 270.0346  90.0464 14.98330101 35011,6950.193,96.107,574.174,569.941,0.0
55943.0,STARLINK-5932,PAYLOAD,2023-10-29 10:09:31,14.98329777,0.0002791,69.9989,298.427,264.1155,95.9686,0.00017535,2e-05,0.0,0 STARLINK-5932,1 55943U 23037AF  23302.42328061  .00002000  00000-0  17535-3 0  9993,2 55943  69.9989 298.4270 0002791 264.1155  95.9686 14.98329777 35168,6950.194,96.107,573.998,570.119,0.0
55943.0,STARLINK-5932,PAYLOAD,2023-10-29 16:34:03,14.98336167,0.0002892,69.9991,297.7534,271.056,89.0268,-6.2595e-05,-8.4e-06,0.0,0 STARLINK-5932,1 55943U 23037AF  23302.69032151 -.00000840  00000-0 -62595-4 0  9993,2 55943  69.9991 297.7534 0002892 271.0560  89.0268 14.98336167 34862,6950.174,96.107,574.049,570.029,0.0
55943.0,STARLINK-5932,PAYLOAD,2023-10-30 03:47:00,14.98326572,0.0002812,69.9997,296.5767,269.2965,90.7872,5.5465e-06,-2.7e-07,0.0,0 STARLINK-5932,1 55943U 23037AF  23303.15764655 -.00000027  00000-0  55465-5 0  9991,2 55943  69.9997 296.5767 0002812 269.2965  90.7872 14.98326572 35278,6950.203,96.107,574.023,570.114,0.0
55943.0,STARLINK-5932,PAYLOAD,2023-10-30 16:36:04,14.98343188,0.0002382,70.0002,295.2286,274.9627,85.126,-0.00030423,-3.722e-05,0.0,0 STARLINK-5932,1 55943U 23037AF  23303.69172428 -.00003722  00000-0 -30423-3 0  9992,2 55943  70.0002 295.2286 0002382 274.9627  85.1260 14.98343188 35350,6950.152,96.106,573.673,570.362,0.0
55943.0,STARLINK-5932,PAYLOAD,2023-10-31 05:25:09,14.98330655,0.0002504,69.9992,293.8828,259.3671,100.7207,-6.2315e-05,-8.36e-06,0.0,0 STARLINK-5932,1 55943U 23037AF  23304.22580593 -.00000836  00000-0 -62315-4 0  9997,2 55943  69.9992 293.8828 0002504 259.3671 100.7207 14.98330655 35432,6950.191,96.107,573.796,570.316,0.0
55943.0,STARLINK-5932,PAYLOAD,2023-10-31 10:13:33,14.98330185,0.0002517,69.9993,293.3774,263.175,96.9123,-5.1929e-05,-7.12e-06,0.0,0 STARLINK-5932,1 55943U 23037AF  23304.42608602 -.00000712  00000-0 -51929-4 0  9993,2 55943  69.9993 293.3774 0002517 263.1750  96.9123 14.98330185 35120,6950.192,96.107,573.807,570.308,0.0
55943.0,STARLINK-5932,PAYLOAD,2023-10-31 16:38:06,14.98335116,0.0002526,69.9995,292.7038,270.906,89.181,-0.00015587,-1.952e-05,0.0,0 STARLINK-5932,1 55943U 23037AF  23304.69312589 -.00001952  00000-0 -15587-3 0  9994,2 55943  69.9995 292.7038 0002526 270.9060  89.1810 14.98335116 35168,6950.177,96.107,573.798,570.286,0.0
55943.0,STARLINK-5932,PAYLOAD,2023-11-01 08:39:26,14.98328807,0.0002568,69.9991,291.0201,264.1164,95.9702,3.413e-05,3.14e-06,0.0,0 STARLINK-5932,1 55943U 23037AF  23305.36072503  .00000314  00000-0  34130-4 0  9993,2 55943  69.9991 291.0201 0002568 264.1164  95.9702 14.98328807 35607,6950.197,96.107,573.846,570.277,0.0
55943.0,STARLINK-5932,PAYLOAD,2023-11-01 16:40:07,14.98327816,0.0002732,69.9996,290.1786,267.3561,92.7285,2.8825e-05,2.51e-06,0.0,0 STARLINK-5932,1 55943U 23037AF  23305.69452562  .00000251  00000-0  28825-4 0  9990,2 55943  69.9996 290.1786 0002732 267.3561  92.7285 14.98327816 35317,6950.2,96.107,573.963,570.166,0.0
55943.0,STARLINK-5932,PAYLOAD,2023-11-02 08:41:27,14.98330133,0.0002546,69.9994,288.4957,266.1368,93.95,6.0401e-05,6.28e-06,0.0,0 STARLINK-5932,1 55943U 23037AF  23306.36212368  .00000628  00000-0  60401-4 0  9997,2 55943  69.9994 288.4957 0002546 266.1368  93.9500 14.98330133 35757,6950.192,96.107,573.827,570.288,0.0
55943.0,STARLINK-5932,PAYLOAD,2023-11-02 16:42:08,14.98329249,0.0002286,70.0004,287.6539,276.9249,83.165,2.3968e-05,1.93e-06,0.0,0 STARLINK-5932,1 55943U 23037AF  23306.69592671  .00000193  00000-0  23968-4 0  9995,2 55943  70.0004 287.6539 0002286 276.9249  83.1650 14.98329249 35468,6950.195,96.107,573.649,570.471,0.0
55943.0,STARLINK-5932,PAYLOAD,2023-11-03 08:43:28,14.98328912,0.0002553,69.9996,285.9712,266.3699,93.7168,2.0776e-05,1.55e-06,0.0,0 STARLINK-5932,1 55943U 23037AF  23307.36352523  .00000155  00000-0  20776-4 0  9992,2 55943  69.9996 285.9712 0002553 266.3699  93.7168 14.98328912 35904,6950.196,96.107,573.836,570.287,0.0
55943.0,STARLINK-5932,PAYLOAD,2023-11-04 05:33:12,14.98338164,0.0002449,70.0,283.783,259.3431,100.7452,7.6826e-05,8.24e-06,0.0,0 STARLINK-5932,1 55943U 23037AF  23308.23139733  .00000824  00000-0  76826-4 0  9995,2 55943  70.0000 283.7830 0002449 259.3431 100.7452 14.98338164 36030,6950.168,96.106,573.735,570.331,0.0
55943.0,STARLINK-5932,PAYLOAD,2023-11-04 08:45:28,14.9833684,0.0002724,69.9992,283.4458,265.3698,94.715,6.1232e-05,6.38e-06,0.0,0 STARLINK-5932,1 55943U 23037AF  23308.36491804  .00000638  00000-0  61232-4 0  9997,2 55943  69.9992 283.4458 0002724 265.3698  94.7150 14.98336840 35718,6950.172,96.107,573.93,570.144,0.0
55943.0,STARLINK-5932,PAYLOAD,2023-11-04 15:10:01,14.98332517,0.0002424,70.0008,282.7715,278.2081,81.8803,-1.1124e-05,-2.26e-06,0.0,0 STARLINK-5932,1 55943U 23037AF  23308.63196334 -.00000226  00000-0 -11124-4 0  9997,2 55943  70.0008 282.7715 0002424 278.2081  81.8803 14.98332517 36094,6950.185,96.107,573.735,570.365,0.0
55943.0,STARLINK-5932,PAYLOAD,2023-11-05 07:11:21,14.98349708,0.0002243,70.0,281.0883,269.8695,90.2207,-0.00024588,-3.027e-05,0.0,0 STARLINK-5932,1 55943U 23037AF  23309.29955711 -.00003027  00000-0 -24588-3 0  9991,2 55943  70.0000 281.0883 0002243 269.8695  90.2207 14.98349708 36193,6950.132,96.106,573.556,570.438,0.0
55943.0,STARLINK-5932,PAYLOAD,2023-11-05 15:12:01,14.98349983,0.0002653,70.0003,280.2463,272.9395,87.146,-0.00027052,-3.321e-05,0.0,0 STARLINK-5932,1 55943U 23037AF  23309.63335538 -.00003321  00000-0 -27052-3 0  9994,2 55943  70.0003 280.2463 0002653 272.9395  87.1460 14.98349983 35907,6950.131,96.106,573.84,570.152,0.0
